[{"OBJECT_NAME":"GEESAT-5 11","OBJECT_ID":"2025-201L","EPOCH":"2026-03-09T16:20:00.938688","MEAN_MOTION":14.8375843,"ECCENTRICITY":0.00089326,"INCLINATION":49.9859,"RA_OF_ASC_NODE":140.356,"ARG_OF_PERICENTER":317.2651,"MEAN_ANOMALY":42.7591,"EPHEMERIS_TYPE":0,"CLASSIFICATION_TYPE":"U","NORAD_CAT_ID":65560,"ELEMENT_SET_NO":999,"REV_AT_EPOCH":2704,"BSTAR":0.00034705085,"MEAN_MOTION_DOT":2.678e-5,"MEAN_MOTION_DDOT":0},{"OBJECT_NAME":"CZ-6A DEB","OBJECT_ID":"2024-140AAX","EPOCH":"2026-03-08T15:37:02.327232","MEAN_MOTION":14.74917539,"ECCENTRICITY":0.00765429,"INCLINATION":89.2201,"RA_OF_ASC_NODE":297.6926,"ARG_OF_PERICENTER":148.1947,"MEAN_ANOMALY":212.3931,"EPHEMERIS_TYPE":0,"CLASSIFICATION_TYPE":"U","NORAD_CAT_ID":61489,"ELEMENT_SET_NO":999,"REV_AT_EPOCH":7815,"BSTAR":0.0042618132,"MEAN_MOTION_DOT":0.00030106,"MEAN_MOTION_DDOT":0}]
